[{"OBJECT_NAME":"YAOGAN-39 05C","OBJECT_ID":"2023-194C","EPOCH":"2026-03-09T22:48:54.340416","MEAN_MOTION":15.16682362,"ECCENTRICITY":0.00139818,"INCLINATION":34.9933,"RA_OF_ASC_NODE":339.8218,"ARG_OF_PERICENTER":233.6352,"MEAN_ANOMALY":126.3071,"EPHEMERIS_TYPE":0,"CLASSIFICATION_TYPE":"U","NORAD_CAT_ID":58559,"ELEMENT_SET_NO":999,"REV_AT_EPOCH":12504,"BSTAR":0.0003860733,"MEAN_MOTION_DOT":7.728e-5,"MEAN_MOTION_DDOT":0},{"OBJECT_NAME":"IHI-SAT2","OBJECT_ID":"2025-276DL","EPOCH":"2026-03-09T17:30:40.180608","MEAN_MOTION":15.20112566,"ECCENTRICITY":0.00018696,"INCLINATION":97.4302,"RA_OF_ASC_NODE":144.214,"ARG_OF_PERICENTER":154.4631,"MEAN_ANOMALY":205.6697,"EPHEMERIS_TYPE":0,"CLASSIFICATION_TYPE":"U","NORAD_CAT_ID":66772,"ELEMENT_SET_NO":999,"REV_AT_EPOCH":1533,"BSTAR":0.00038428592,"MEAN_MOTION_DOT":8.239e-5,"MEAN_MOTION_DDOT":0}]
